STAR VIBE               
1 55009U 23001A   23023.78425578  .00008004  00000+0  46944-3 0  9992
2 55009  97.4993  85.5360 0010817 157.1091 203.0624 15.11973138  3201
2023-001B               
1 55010U 23001B   23023.78266927  .00013018  00000+0  75587-3 0  9991
2 55010  97.5016  85.5445 0011261 158.8773 201.2925 15.12198801  3204
2023-001C               
1 55011U 23001C   23023.78235646  .00010330  00000+0  60132-3 0  9990
2 55011  97.5045  85.5518 0011626 159.9664 200.2025 15.12163616  3200
CONNECTAT1.2            
1 55012U 23001D   23023.78101252  .00009735  00000+0  56543-3 0  9994
2 55012  97.5065  85.5596 0012432 158.9543 201.2201 15.12253487  3203
LEMUR-2-PHILARI         
1 55013U 23001E   23023.77873157  .00019253  00000+0  11035-2 0  9996
2 55013  97.4979  85.5371 0010748 148.2888 211.8992 15.12582632  3201
LEMUR-2-DISCLAIMER      
1 55014U 23001F   23023.77827234  .00021607  00000+0  12348-2 0  9996
2 55014  97.5017  85.5501 0011700 154.7718 205.4086 15.12654393  3201
2023-001G               
1 55015U 23001G   23023.77889696  .00011623  00000+0  67065-3 0  9991
2 55015  97.5052  85.5590 0012259 155.2113 204.9709 15.12444283  3205
2023-001H               
1 55016U 23001H   23023.77966825  .00007690  00000+0  44682-3 0  9991
2 55016  97.4981  85.5388 0012079 152.8296 207.3569 15.12313580  3202
LEMUR-2-STEVEALBERS     
1 55017U 23001J   23023.77741259  .00016525  00000+0  94590-3 0  9994
2 55017  97.4965  85.5360 0011301 150.3287 209.8587 15.12657431  3208
2023-001K               
1 55018U 23001K   23023.77750674  .00014477  00000+0  82997-3 0  9998
2 55018  97.5001  85.5463 0011711 149.7328 210.4581 15.12626628  3204
2023-001L               
1 55019U 23001L   23023.77743898  .00014510  00000+0  83171-3 0  9992
2 55019  97.5029  85.5544 0011993 152.3177 207.8694 15.12630300  3206
FLOCK 4Y-24             
1 55020U 23001M   23023.77737569  .00010667  00000+0  61403-3 0  9995
2 55020  97.5000  85.5461 0012042 147.7400 212.4569 15.12554294  3208
FLOCK 4Y-32             
1 55021U 23001N   23023.77767425  .00010771  00000+0  62066-3 0  9992
2 55021  97.4997  85.5441 0012112 144.3249 215.8793 15.12513136  3209
FLOCK 4Y-22             
1 55022U 23001P   23023.77652912  .00007771  00000+0  44798-3 0  9995
2 55022  97.5002  85.5465 0012370 141.6868 218.5244 15.12590933  3208
FLOCK 4Y-18             
1 55023U 23001Q   23023.77736343  .00010869  00000+0  62566-3 0  9992
2 55023  97.5030  85.5562 0012081 145.5045 214.6972 15.12546832  3201
FLOCK 4Y-14             
1 55024U 23001R   23023.77638214  .00010205  00000+0  58635-3 0  9997
2 55024  97.5022  85.5539 0012291 149.6800 210.5145 15.12631358  3209
FLOCK 4Y-30             
1 55025U 23001S   23024.23897428  .00010704  00000+0  61384-3 0  9993
2 55025  97.5030  86.0133 0012456 146.3526 213.8498 15.12685165  3276
FLOCK 4Y-19             
1 55026U 23001T   23024.23936542  .00010396  00000+0  59695-3 0  9994
2 55026  97.4993  85.9987 0012902 139.1992 221.0207 15.12640585  3278
FLOCK 4Y-25             
1 55027U 23001U   23024.50380155  .00009584  00000+0  55059-3 0  9995
2 55027  97.4988  86.2592 0012471 143.8134 216.3943 15.12649957  3311
FLOCK 4Y-5              
1 55028U 23001V   23024.10614208  .00010632  00000+0  60906-3 0  9994
2 55028  97.5003  85.8725 0013250 138.7282 221.4953 15.12714230  3255
FLOCK 4Y-10             
1 55029U 23001W   23024.50357727  .00010021  00000+0  57514-3 0  9992
2 55029  97.5027  86.2745 0012640 141.8031 218.4098 15.12671958  3310
FLOCK 4Y-29             
1 55030U 23001X   23024.23860576  .00010487  00000+0  60118-3 0  9995
2 55030  97.4988  85.9993 0012789 141.9274 218.2863 15.12698944  3279
FLOCK 4Y-17             
1 55031U 23001Y   23024.50319558  .00009420  00000+0  54058-3 0  9996
2 55031  97.5034  86.2761 0012680 144.2875 215.9207 15.12693532  3312
FLOCK 4Y-7              
1 55032U 23001Z   23024.50242397  .00007684  00000+0  44111-3 0  9992
2 55032  97.5001  86.2621 0013765 137.7257 222.5038 15.12734066  3312
FLOCK 4Y-28             
1 55033U 23001AA  23024.23802118  .00009383  00000+0  53816-3 0  9996
2 55033  97.4978  85.9977 0012923 143.2621 216.9498 15.12712715  3276
2023-001AB              
1 55034U 23001AB  23024.50314125  .00004221  00000+0  24498-3 0  9993
2 55034  97.5016  86.2706 0013513 140.0937 220.1290 15.12605931  3319
FLOCK 4Y-3              
1 55035U 23001AC  23023.76565916  .00010098  00000+0  56654-3 0  9995
2 55035  97.4993  85.5563 0016152 145.5778 214.6503 15.13442828  3209
2023-001AD              
1 55036U 23001AD  23024.22828335  .00028312  00000+0  15623-2 0  9993
2 55036  97.5016  86.0200 0014832 146.2454 213.9725 15.13816186  3270
LEMUR-2-EMMACULATE      
1 55037U 23001AE  23024.22256924  .00024150  00000+0  13222-2 0  9992
2 55037  97.5035  86.0354 0016735 140.0272 220.2195 15.14104804  3276
2023-001AF              
1 55038U 23001AF  23024.22033870  .00019017  00000+0  10391-2 0  9996
2 55038  97.5051  86.0422 0017658 142.9282 217.3173 15.14212896  3272
FLOCK 4Y-1              
1 55039U 23001AG  23023.57548563  .00014102  00000+0  80263-3 0  9990
2 55039  97.4990  85.3494 0013622 142.1313 218.0879 15.12874509  3172
FLOCK 4Y-16             
1 55040U 23001AH  23023.57562179  .00010498  00000+0  60012-3 0  9995
2 55040  97.5043  85.3701 0013015 148.8267 211.3738 15.12796735  3176
2023-001AJ              
1 55041U 23001AJ  23023.57329152  .00007928  00000+0  45250-3 0  9999
2 55041  97.5013  85.3632 0014323 145.6677 214.5483 15.12920639  3174
FLOCK 4Y-33             
1 55042U 23001AK  23023.57598693  .00007682  00000+0  44119-3 0  9998
2 55042  97.4984  85.3485 0013322 143.7922 216.4214 15.12722034  3179
FLOCK 4Y-11             
1 55043U 23001AL  23023.57522187  .00008182  00000+0  46863-3 0  9998
2 55043  97.5034  85.3691 0012996 147.0241 213.1803 15.12800017  3179
2023-001AM              
1 55044U 23001AM  23023.57562800  .00009558  00000+0  54707-3 0  9999
2 55044  97.5054  85.3717 0013457 150.8660 209.3325 15.12774347  3173
2023-001AN              
1 55045U 23001AN  23023.57515308  .00010023  00000+0  57256-3 0  9992
2 55045  97.5014  85.3578 0014234 142.2676 217.9556 15.12819960  3173
2023-001AP              
1 55046U 23001AP  23023.57565643  .00004567  00000+0  26407-3 0  9990
2 55046  97.5022  85.3642 0013604 145.4262 214.7856 15.12690916  3177
2023-001AQ              
1 55047U 23001AQ  23023.57451399  .00009873  00000+0  56331-3 0  9997
2 55047  97.5013  85.3566 0014502 142.6465 217.5777 15.12866367  3173
2023-001AR              
1 55048U 23001AR  23024.50025895  .00008568  00000+0  48917-3 0  9991
2 55048  97.5011  86.2734 0014019 141.4555 218.7680 15.12890851  3316
2023-001AS              
1 55049U 23001AS  23024.49911541  .00011283  00000+0  64007-3 0  9998
2 55049  97.5017  86.2712 0014605 140.9679 219.2609 15.13034054  3314
2023-001AT              
1 55050U 23001AT  23024.49636755  .00025006  00000+0  13918-2 0  9993
2 55050  97.5013  86.2795 0013637 143.5479 216.6684 15.13549853  3316
ION SCV-008             
1 55051U 23001AU  23024.49995807  .00004877  00000+0  28053-3 0  9990
2 55051  97.5016  86.2715 0015042 141.8405 218.3893 15.12830956  3311
2023-001AV              
1 55052U 23001AV  23024.49839508  .00011213  00000+0  63515-3 0  9990
2 55052  97.5008  86.2745 0014318 142.4528 217.7706 15.13093347  3316
EOSSAT-1                
1 55053U 23001AW  23024.49936176  .00004581  00000+0  26350-3 0  9996
2 55053  97.5022  86.2740 0015187 142.8132 217.4154 15.12864286  3319
STERNULA-1              
1 55054U 23001AX  23024.49885819  .00005870  00000+0  33604-3 0  9996
2 55054  97.5004  86.2736 0014452 143.3415 216.8808 15.12927329  3316
FLOCK 4Y-4              
1 55055U 23001AY  23023.57168509  .00010549  00000+0  59729-3 0  9990
2 55055  97.5013  85.3589 0015204 144.3355 215.8895 15.13113058  3179
VIGORIDE-5              
1 55056U 23001AZ  23024.49693833  .00008131  00000+0  46115-3 0  9995
2 55056  97.5008  86.2763 0014520 144.4460 215.7741 15.13141921  3311
FLOCK 4Y-35             
1 55057U 23001BA  23023.57041269  .00010552  00000+0  59609-3 0  9996
2 55057  97.5025  85.3736 0014111 149.5066 210.6989 15.13210552  3174
2023-001BB              
1 55058U 23001BB  23023.77150693  .00010449  00000+0  59404-3 0  9999
2 55058  97.5010  85.5583 0014335 145.3782 214.8386 15.12982725  3206
2023-001BC              
1 55059U 23001BC  23023.77062837  .00015246  00000+0  86028-3 0  9994
2 55059  97.5007  85.5591 0014166 145.2092 215.0068 15.13159334  3200
2023-001BD              
1 55060U 23001BD  23024.33192079 -.00000062  00000+0  00000+0 0  9994
2 55060  97.4851  86.0323 0056825 169.1332 187.5641 15.01808303  3289
2023-001BE              
1 55061U 23001BE  23024.49725769  .00003782  00000+0  21745-3 0  9994
2 55061  97.5011  86.2780 0014125 147.1312 213.0800 15.13004627  3315
2023-001BF              
1 55062U 23001BF  23023.76830796  .00011555  00000+0  65106-3 0  9997
2 55062  97.5024  85.5619 0015077 147.5413 212.6748 15.13267938  3206
FLOCK 4Y-20             
1 55063U 23001BG  23023.76515229  .00010146  00000+0  56917-3 0  9994
2 55063  97.5043  85.5763 0016045 149.9125 210.3031 15.13444984  3208
2023-001BH              
1 55064U 23001BH  23023.76692464  .00010017  00000+0  56395-3 0  9999
2 55064  97.5022  85.5696 0014961 150.5073 209.7005 15.13335406  3207
FLOCK 4Y-12             
1 55065U 23001BJ  23023.76638122  .00010198  00000+0  57303-3 0  9991
2 55065  97.5051  85.5763 0015656 148.6825 211.5342 15.13389492  3209
FLOCK 4Y-6              
1 55066U 23001BK  23024.49300972  .00009918  00000+0  55648-3 0  9990
2 55066  97.5030  86.2897 0015675 147.8696 212.3494 15.13451144  3314
2023-001BL              
1 55067U 23001BL  23023.49705324  .00023409  00000+0  12846-2 0  9993
2 55067  97.5064  85.3258 0016083 149.1582 211.0598 15.14038640  3163
